CCSDS_OMM_VERS = 2.0
CREATION_DATE  = 
ORIGINATOR     = 

OBJECT_NAME    = COSMOS 2058
OBJECT_ID      = 1990-010A
CENTER_NAME    = EARTH
REF_FRAME      = TEME
TIME_SYSTEM    = UTC
MEAN_ELEMENT_THEORY = SGP/SGP4

EPOCH          = 2026-03-27T14:09:24.991776
MEAN_MOTION    = 15.11478515
ECCENTRICITY   = .00074233
INCLINATION    = 82.4685
RA_OF_ASC_NODE = 29.7887
ARG_OF_PERICENTER = 273.3285
MEAN_ANOMALY   = 86.7095

EPHEMERIS_TYPE = 0
CLASSIFICATION_TYPE = U
NORAD_CAT_ID   = 20465
ELEMENT_SET_NO = 999
REV_AT_EPOCH   = 94494
BSTAR          = .27919067E-3
MEAN_MOTION_DOT = .4754E-4
MEAN_MOTION_DDOT = 0

CCSDS_OMM_VERS = 2.0
CREATION_DATE  = 
ORIGINATOR     = 

OBJECT_NAME    = SL-14 R/B
OBJECT_ID      = 1990-010B
CENTER_NAME    = EARTH
REF_FRAME      = TEME
TIME_SYSTEM    = UTC
MEAN_ELEMENT_THEORY = SGP/SGP4

EPOCH          = 2026-03-27T13:26:38.211936
MEAN_MOTION    = 14.83584725
ECCENTRICITY   = .00185295
INCLINATION    = 82.4995
RA_OF_ASC_NODE = 250.5973
ARG_OF_PERICENTER = 238.7992
MEAN_ANOMALY   = 121.1407

EPHEMERIS_TYPE = 0
CLASSIFICATION_TYPE = U
NORAD_CAT_ID   = 20466
ELEMENT_SET_NO = 999
REV_AT_EPOCH   = 93113
BSTAR          = .55005025E-4
MEAN_MOTION_DOT = .478E-5
MEAN_MOTION_DDOT = 0

CCSDS_OMM_VERS = 2.0
CREATION_DATE  = 
ORIGINATOR     = 

OBJECT_NAME    = SL-14 R/B
OBJECT_ID      = 1990-018B
CENTER_NAME    = EARTH
REF_FRAME      = TEME
TIME_SYSTEM    = UTC
MEAN_ELEMENT_THEORY = SGP/SGP4

EPOCH          = 2026-03-27T14:17:00.117600
MEAN_MOTION    = 14.82162150
ECCENTRICITY   = .00170308
INCLINATION    = 82.5236
RA_OF_ASC_NODE = 206.3567
ARG_OF_PERICENTER = 37.4135
MEAN_ANOMALY   = 322.8261

EPHEMERIS_TYPE = 0
CLASSIFICATION_TYPE = U
NORAD_CAT_ID   = 20511
ELEMENT_SET_NO = 999
REV_AT_EPOCH   = 92523
BSTAR          = .51291836E-4
MEAN_MOTION_DOT = .433E-5
MEAN_MOTION_DDOT = 0

CCSDS_OMM_VERS = 2.0
CREATION_DATE  = 
ORIGINATOR     = 

OBJECT_NAME    = HST
OBJECT_ID      = 1990-037B
CENTER_NAME    = EARTH
REF_FRAME      = TEME
TIME_SYSTEM    = UTC
MEAN_ELEMENT_THEORY = SGP/SGP4

EPOCH          = 2026-03-27T14:58:22.228896
MEAN_MOTION    = 15.29752332
ECCENTRICITY   = .00016284
INCLINATION    = 28.4722
RA_OF_ASC_NODE = 277.6348
ARG_OF_PERICENTER = 336.4756
MEAN_ANOMALY   = 23.5765

EPHEMERIS_TYPE = 0
CLASSIFICATION_TYPE = U
NORAD_CAT_ID   = 20580
ELEMENT_SET_NO = 999
REV_AT_EPOCH   = 77606
BSTAR          = .24818734E-3
MEAN_MOTION_DOT = .7593E-4
MEAN_MOTION_DDOT = 0

CCSDS_OMM_VERS = 2.0
CREATION_DATE  = 
ORIGINATOR     = 

OBJECT_NAME    = SL-16 R/B
OBJECT_ID      = 1990-046B
CENTER_NAME    = EARTH
REF_FRAME      = TEME
TIME_SYSTEM    = UTC
MEAN_ELEMENT_THEORY = SGP/SGP4

EPOCH          = 2026-03-27T13:58:24.577824
MEAN_MOTION    = 14.15015438
ECCENTRICITY   = .00163014
INCLINATION    = 70.9973
RA_OF_ASC_NODE = 260.3326
ARG_OF_PERICENTER = 276.1230
MEAN_ANOMALY   = 83.8035

EPHEMERIS_TYPE = 0
CLASSIFICATION_TYPE = U
NORAD_CAT_ID   = 20625
ELEMENT_SET_NO = 999
REV_AT_EPOCH   = 85092
BSTAR          = .16238094E-3
MEAN_MOTION_DOT = .267E-5
MEAN_MOTION_DDOT = 0

CCSDS_OMM_VERS = 2.0
CREATION_DATE  = 
ORIGINATOR     = 

OBJECT_NAME    = COSMOS 2084
OBJECT_ID      = 1990-055A
CENTER_NAME    = EARTH
REF_FRAME      = TEME
TIME_SYSTEM    = UTC
MEAN_ELEMENT_THEORY = SGP/SGP4

EPOCH          = 2026-03-27T14:05:05.837568
MEAN_MOTION    = 15.05745006
ECCENTRICITY   = .0014255
INCLINATION    = 62.7891
RA_OF_ASC_NODE = 274.5312
ARG_OF_PERICENTER = 195.4861
MEAN_ANOMALY   = 164.5806

EPHEMERIS_TYPE = 0
CLASSIFICATION_TYPE = U
NORAD_CAT_ID   = 20663
ELEMENT_SET_NO = 999
REV_AT_EPOCH   = 93901
BSTAR          = .18120056E-3
MEAN_MOTION_DOT = .2439E-4
MEAN_MOTION_DDOT = 0

CCSDS_OMM_VERS = 2.0
CREATION_DATE  = 
ORIGINATOR     = 

OBJECT_NAME    = SL-6 R/B(2)
OBJECT_ID      = 1990-055D
CENTER_NAME    = EARTH
REF_FRAME      = TEME
TIME_SYSTEM    = UTC
MEAN_ELEMENT_THEORY = SGP/SGP4

EPOCH          = 2026-03-27T14:15:26.007264
MEAN_MOTION    = 15.03678367
ECCENTRICITY   = .00277274
INCLINATION    = 62.7831
RA_OF_ASC_NODE = 192.9595
ARG_OF_PERICENTER = 351.1485
MEAN_ANOMALY   = 8.9121

EPHEMERIS_TYPE = 0
CLASSIFICATION_TYPE = U
NORAD_CAT_ID   = 20666
ELEMENT_SET_NO = 999
REV_AT_EPOCH   = 94088
BSTAR          = .13966775E-3
MEAN_MOTION_DOT = .1735E-4
MEAN_MOTION_DDOT = 0

CCSDS_OMM_VERS = 2.0
CREATION_DATE  = 
ORIGINATOR     = 

OBJECT_NAME    = SL-8 R/B
OBJECT_ID      = 1990-078B
CENTER_NAME    = EARTH
REF_FRAME      = TEME
TIME_SYSTEM    = UTC
MEAN_ELEMENT_THEORY = SGP/SGP4

EPOCH          = 2026-03-27T12:19:29.893152
MEAN_MOTION    = 14.89598180
ECCENTRICITY   = .03586368
INCLINATION    = 82.9018
RA_OF_ASC_NODE = 235.2713
ARG_OF_PERICENTER = 313.9037
MEAN_ANOMALY   = 43.3073

EPHEMERIS_TYPE = 0
CLASSIFICATION_TYPE = U
NORAD_CAT_ID   = 20775
ELEMENT_SET_NO = 999
REV_AT_EPOCH   = 81195
BSTAR          = .35731266E-3
MEAN_MOTION_DOT = .12063E-3
MEAN_MOTION_DDOT = 0

CCSDS_OMM_VERS = 2.0
CREATION_DATE  = 
ORIGINATOR     = 

OBJECT_NAME    = SL-8 R/B
OBJECT_ID      = 1991-006B
CENTER_NAME    = EARTH
REF_FRAME      = TEME
TIME_SYSTEM    = UTC
MEAN_ELEMENT_THEORY = SGP/SGP4

EPOCH          = 2026-03-27T13:49:14.952000
MEAN_MOTION    = 13.77496874
ECCENTRICITY   = .00219276
INCLINATION    = 82.9448
RA_OF_ASC_NODE = 156.7485
ARG_OF_PERICENTER = 348.7331
MEAN_ANOMALY   = 123.4586

EPHEMERIS_TYPE = 0
CLASSIFICATION_TYPE = U
NORAD_CAT_ID   = 21088
ELEMENT_SET_NO = 999
REV_AT_EPOCH   = 76653
BSTAR          = .62968956E-4
MEAN_MOTION_DOT = .78E-6
MEAN_MOTION_DDOT = 0

CCSDS_OMM_VERS = 2.0
CREATION_DATE  = 
ORIGINATOR     = 

OBJECT_NAME    = OKEAN-3
OBJECT_ID      = 1991-039A
CENTER_NAME    = EARTH
REF_FRAME      = TEME
TIME_SYSTEM    = UTC
MEAN_ELEMENT_THEORY = SGP/SGP4

EPOCH          = 2026-03-27T15:10:15.440160
MEAN_MOTION    = 15.04906781
ECCENTRICITY   = .00123149
INCLINATION    = 82.5165
RA_OF_ASC_NODE = 319.4595
ARG_OF_PERICENTER = 270.3344
MEAN_ANOMALY   = 89.6471

EPHEMERIS_TYPE = 0
CLASSIFICATION_TYPE = U
NORAD_CAT_ID   = 21397
ELEMENT_SET_NO = 999
REV_AT_EPOCH   = 86773
BSTAR          = .13738419E-3
MEAN_MOTION_DOT = .1974E-4
MEAN_MOTION_DDOT = 0

CCSDS_OMM_VERS = 2.0
CREATION_DATE  = 
ORIGINATOR     = 

OBJECT_NAME    = COSMOS 2151
OBJECT_ID      = 1991-042A
CENTER_NAME    = EARTH
REF_FRAME      = TEME
TIME_SYSTEM    = UTC
MEAN_ELEMENT_THEORY = SGP/SGP4

EPOCH          = 2026-03-27T11:49:38.494560
MEAN_MOTION    = 15.00178477
ECCENTRICITY   = .0012562
INCLINATION    = 82.4944
RA_OF_ASC_NODE = 66.4972
ARG_OF_PERICENTER = 7.7434
MEAN_ANOMALY   = 352.3982

EPHEMERIS_TYPE = 0
CLASSIFICATION_TYPE = U
NORAD_CAT_ID   = 21422
ELEMENT_SET_NO = 999
REV_AT_EPOCH   = 86586
BSTAR          = .1964976E-3
MEAN_MOTION_DOT = .2484E-4
MEAN_MOTION_DDOT = 0

CCSDS_OMM_VERS = 2.0
CREATION_DATE  = 
ORIGINATOR     = 

OBJECT_NAME    = SL-14 R/B
OBJECT_ID      = 1991-042B
CENTER_NAME    = EARTH
REF_FRAME      = TEME
TIME_SYSTEM    = UTC
MEAN_ELEMENT_THEORY = SGP/SGP4

EPOCH          = 2026-03-27T14:01:37.193664
MEAN_MOTION    = 14.81847074
ECCENTRICITY   = .00171114
INCLINATION    = 82.4955
RA_OF_ASC_NODE = 203.4051
ARG_OF_PERICENTER = 177.4367
MEAN_ANOMALY   = 182.6938

EPHEMERIS_TYPE = 0
CLASSIFICATION_TYPE = U
NORAD_CAT_ID   = 21423
ELEMENT_SET_NO = 999
REV_AT_EPOCH   = 85572
BSTAR          = .5461787E-4
MEAN_MOTION_DOT = .456E-5
MEAN_MOTION_DDOT = 0

