COSMOS 2058             
1 20465U 90010A   26086.58987259  .00004754  00000+0  27919-3 0  9992
2 20465  82.4685  29.7887 0007423 273.3285  86.7095 15.11478515944942
SL-14 R/B               
1 20466U 90010B   26086.56016449  .00000478  00000+0  55005-4 0  9992
2 20466  82.4995 250.5973 0018529 238.7992 121.1407 14.83584725931133
SL-14 R/B               
1 20511U 90018B   26086.59514025  .00000433  00000+0  51292-4 0  9992
2 20511  82.5236 206.3567 0017030  37.4135 322.8261 14.82162150925235
HST                     
1 20580U 90037B   26086.62386839  .00007593  00000+0  24819-3 0  9991
2 20580  28.4722 277.6348 0001628 336.4756  23.5765 15.29752332776063
SL-16 R/B               
1 20625U 90046B   26086.58222891  .00000267  00000+0  16238-3 0  9990
2 20625  70.9973 260.3326 0016301 276.1230  83.8035 14.15015438850929
COSMOS 2084             
1 20663U 90055A   26086.58687312  .00002439  00000+0  18120-3 0  9990
2 20663  62.7891 274.5312 0014255 195.4861 164.5806 15.05745006939012
SL-6 R/B(2)             
1 20666U 90055D   26086.59405101  .00001735  00000+0  13967-3 0  9990
2 20666  62.7831 192.9595 0027727 351.1485   8.9121 15.03678367940887
SL-8 R/B                
1 20775U 90078B   26086.51354043  .00012063  00000+0  35731-3 0  9995
2 20775  82.9018 235.2713 0358636 313.9037  43.3073 14.89598180811958
SL-8 R/B                
1 21088U 91006B   26086.57586750  .00000078  00000+0  62969-4 0  9990
2 21088  82.9448 156.7485 0021927 348.7331 123.4586 13.77496874766534
OKEAN-3                 
1 21397U 91039A   26086.63212315  .00001974  00000+0  13738-3 0  9994
2 21397  82.5165 319.4595 0012314 270.3344  89.6471 15.04906781867738
COSMOS 2151             
1 21422U 91042A   26086.49280665  .00002484  00000+0  19650-3 0  9990
2 21422  82.4944  66.4972 0012562   7.7434 352.3982 15.00178477865864
SL-14 R/B               
1 21423U 91042B   26086.58445826  .00000456  00000+0  54618-4 0  9994
2 21423  82.4955 203.4051 0017111 177.4367 182.6938 14.81847074855726
